[{"OBJECT_NAME":"UNIFORM 1","OBJECT_ID":"2014-029B","EPOCH":"2026-03-09T20:40:30.377280","MEAN_MOTION":14.95353458,"ECCENTRICITY":0.00039155,"INCLINATION":97.8,"RA_OF_ASC_NODE":166.6615,"ARG_OF_PERICENTER":280.7355,"MEAN_ANOMALY":79.3425,"EPHEMERIS_TYPE":0,"CLASSIFICATION_TYPE":"U","NORAD_CAT_ID":39767,"ELEMENT_SET_NO":999,"REV_AT_EPOCH":63937,"BSTAR":0.00032279385,"MEAN_MOTION_DOT":3.504e-5,"MEAN_MOTION_DDOT":0},{"OBJECT_NAME":"PSLV DEB","OBJECT_ID":"2001-049BU","EPOCH":"2026-03-09T17:49:30.118080","MEAN_MOTION":14.92717498,"ECCENTRICITY":0.00287316,"INCLINATION":98.0611,"RA_OF_ASC_NODE":133.044,"ARG_OF_PERICENTER":17.6514,"MEAN_ANOMALY":97.6538,"EPHEMERIS_TYPE":0,"CLASSIFICATION_TYPE":"U","NORAD_CAT_ID":27124,"ELEMENT_SET_NO":999,"REV_AT_EPOCH":30489,"BSTAR":0.00040608061,"MEAN_MOTION_DOT":4.163e-5,"MEAN_MOTION_DDOT":0}]
